[
    {
        "Altitude(m)": 713184.6686893558,
        "Argument of Periapsis(deg)": 0.0022780242373254137,
        "Eccentricity": 0.0,
        "Inclination(deg)": 45.0,
        "Latitude(deg)": -33.72369968061228,
        "Longitude(deg)": -128.52992301285624,
        "Mean Anomaly(deg)": 231.3975433294962,
        "RAAN(deg)": 109.99784961170836,
        "Satellite Name": "Constellation 1 498",
        "Satellite Number": 498,
        "Semi-Major Axis(m)": 7083131.272910544,
        "Time(s)": 38
    },
    {
        "Altitude(m)": 713197.5971311178,
        "Argument of Periapsis(deg)": 0.002337972243570819,
        "Eccentricity": 0.0,
        "Inclination(deg)": 45.0,
        "Latitude(deg)": -33.75583865797749,
        "Longitude(deg)": -128.47230956811038,
        "Mean Anomaly(deg)": 231.45824446974606,
        "RAAN(deg)": 109.99779302254281,
        "Satellite Name": "Constellation 1 498",
        "Satellite Number": 498,
        "Semi-Major Axis(m)": 7083131.272910544,
        "Time(s)": 39
    },
    {
        "Altitude(m)": 713210.5162280992,
        "Argument of Periapsis(deg)": 0.0023979202498162246,
        "Eccentricity": 0.0,
        "Inclination(deg)": 45.0,
        "Latitude(deg)": -33.78794653030411,
        "Longitude(deg)": -128.41465021755354,
        "Mean Anomaly(deg)": 231.51894560999597,
        "RAAN(deg)": 109.99773643337723,
        "Satellite Name": "Constellation 1 498",
        "Satellite Number": 498,
        "Semi-Major Axis(m)": 7083131.272910544,
        "Time(s)": 40
    },
    {
        "Altitude(m)": 713223.4259341435,
        "Argument of Periapsis(deg)": 0.00245786825606163,
        "Eccentricity": 0.0,
        "Inclination(deg)": 45.0,
        "Latitude(deg)": -33.82002323780809,
        "Longitude(deg)": -128.3569449155475,
        "Mean Anomaly(deg)": 231.5796467502459,
        "RAAN(deg)": 109.99767984421166,
        "Satellite Name": "Constellation 1 498",
        "Satellite Number": 498,
        "Semi-Major Axis(m)": 7083131.272910544,
        "Time(s)": 41
    },
    {
        "Altitude(m)": 713236.3262031291,
        "Argument of Periapsis(deg)": 0.002517816262307036,
        "Eccentricity": 0.0,
        "Inclination(deg)": 45.0,
        "Latitude(deg)": -33.85206872063693,
        "Longitude(deg)": -128.29919361660973,
        "Mean Anomaly(deg)": 231.64034789049578,
        "RAAN(deg)": 109.99762325504608,
        "Satellite Name": "Constellation 1 498",
        "Satellite Number": 498,
        "Semi-Major Axis(m)": 7083131.272910544,
        "Time(s)": 42
    },
    {
        "Altitude(m)": 713249.2169889603,
        "Argument of Periapsis(deg)": 0.0025777642685524413,
        "Eccentricity": 0.0,
        "Inclination(deg)": 45.0,
        "Latitude(deg)": -33.88408291887053,
        "Longitude(deg)": -128.24139627541376,
        "Mean Anomaly(deg)": 231.7010490307457,
        "RAAN(deg)": 109.99756666588051,
        "Satellite Name": "Constellation 1 498",
        "Satellite Number": 498,
        "Semi-Major Axis(m)": 7083131.272910544,
        "Time(s)": 43
    },
    {
        "Altitude(m)": 713262.098245565,
        "Argument of Periapsis(deg)": 0.002637712274797847,
        "Eccentricity": 0.0,
        "Inclination(deg)": 45.0,
        "Latitude(deg)": -33.91606577252021,
        "Longitude(deg)": -128.18355301488856,
        "Mean Anomaly(deg)": 231.76175017099558,
        "RAAN(deg)": 109.99751007671496,
        "Satellite Name": "Constellation 1 498",
        "Satellite Number": 498,
        "Semi-Major Axis(m)": 7083131.272910544,
        "Time(s)": 44
    },
    {
        "Altitude(m)": 713274.9699269008,
        "Argument of Periapsis(deg)": 0.0026976602810432526,
        "Eccentricity": 0.0,
        "Inclination(deg)": 45.0,
        "Latitude(deg)": -33.94801722153019,
        "Longitude(deg)": -128.12566345382993,
        "Mean Anomaly(deg)": 231.82245131124552,
        "RAAN(deg)": 109.99745348754938,
        "Satellite Name": "Constellation 1 498",
        "Satellite Number": 498,
        "Semi-Major Axis(m)": 7083131.272910544,
        "Time(s)": 45
    },
    {
        "Altitude(m)": 713287.8319869599,
        "Argument of Periapsis(deg)": 0.0027576082872886585,
        "Eccentricity": 0.0,
        "Inclination(deg)": 45.0,
        "Latitude(deg)": -33.97993720577618,
        "Longitude(deg)": -128.0677277154854,
        "Mean Anomaly(deg)": 231.8831524514954,
        "RAAN(deg)": 109.99739689838381,
        "Satellite Name": "Constellation 1 498",
        "Satellite Number": 498,
        "Semi-Major Axis(m)": 7083131.272910544,
        "Time(s)": 46
    },
    {
        "Altitude(m)": 713300.6843797521,
        "Argument of Periapsis(deg)": 0.0028175562935340644,
        "Eccentricity": 0.0,
        "Inclination(deg)": 45.0,
        "Latitude(deg)": -34.011825665066546,
        "Longitude(deg)": -128.00974575516616,
        "Mean Anomaly(deg)": 231.9438535917453,
        "RAAN(deg)": 109.99734030921823,
        "Satellite Name": "Constellation 1 498",
        "Satellite Number": 498,
        "Semi-Major Axis(m)": 7083131.272910544,
        "Time(s)": 47
    },
    {
        "Altitude(m)": 713313.527059322,
        "Argument of Periapsis(deg)": 0.00287750429977947,
        "Eccentricity": 0.0,
        "Inclination(deg)": 45.0,
        "Latitude(deg)": -34.04368253914221,
        "Longitude(deg)": -127.95171752834506,
        "Mean Anomaly(deg)": 232.00455473199523,
        "RAAN(deg)": 109.99728372005266,
        "Satellite Name": "Constellation 1 498",
        "Satellite Number": 498,
        "Semi-Major Axis(m)": 7083131.272910544,
        "Time(s)": 48
    },
    {
        "Altitude(m)": 713326.3599797435,
        "Argument of Periapsis(deg)": 0.002937452306024875,
        "Eccentricity": 0.0,
        "Inclination(deg)": 45.0,
        "Latitude(deg)": -34.07550776767636,
        "Longitude(deg)": -127.8936429906587,
        "Mean Anomaly(deg)": 232.0652558722451,
        "RAAN(deg)": 109.99722713088708,
        "Satellite Name": "Constellation 1 498",
        "Satellite Number": 498,
        "Semi-Major Axis(m)": 7083131.272910544,
        "Time(s)": 49
    },
    {
        "Altitude(m)": 713339.1830951158,
        "Argument of Periapsis(deg)": 0.0029974003122702807,
        "Eccentricity": 0.0,
        "Inclination(deg)": 45.0,
        "Latitude(deg)": -34.10730129027518,
        "Longitude(deg)": -127.83552209790754,
        "Mean Anomaly(deg)": 232.12595701249498,
        "RAAN(deg)": 109.99717054172152,
        "Satellite Name": "Constellation 1 498",
        "Satellite Number": 498,
        "Semi-Major Axis(m)": 7083131.272910544,
        "Time(s)": 50
    },
    {
        "Altitude(m)": 713351.996359568,
        "Argument of Periapsis(deg)": 0.0030573483185156866,
        "Eccentricity": 0.0,
        "Inclination(deg)": 45.0,
        "Latitude(deg)": -34.139063046477624,
        "Longitude(deg)": -127.77735480605722,
        "Mean Anomaly(deg)": 232.18665815274485,
        "RAAN(deg)": 109.99711395255596,
        "Satellite Name": "Constellation 1 498",
        "Satellite Number": 498,
        "Semi-Major Axis(m)": 7083131.272910544,
        "Time(s)": 51
    },
    {
        "Altitude(m)": 713364.7997272599,
        "Argument of Periapsis(deg)": 0.003117296324761092,
        "Eccentricity": 0.0,
        "Inclination(deg)": 45.0,
        "Latitude(deg)": -34.17079297575521,
        "Longitude(deg)": -127.71914123933746,
        "Mean Anomaly(deg)": 232.24735929299476,
        "RAAN(deg)": 109.99705736339038,
        "Satellite Name": "Constellation 1 498",
        "Satellite Number": 498,
        "Semi-Major Axis(m)": 7083131.272910544,
        "Time(s)": 52
    },
    {
        "Altitude(m)": 713377.5931523847,
        "Argument of Periapsis(deg)": 0.0031772443310064975,
        "Eccentricity": 0.0,
        "Inclination(deg)": 45.0,
        "Latitude(deg)": -34.20249101751334,
        "Longitude(deg)": -127.66088101785364,
        "Mean Anomaly(deg)": 232.3080604332447,
        "RAAN(deg)": 109.99700077422482,
        "Satellite Name": "Constellation 1 498",
        "Satellite Number": 498,
        "Semi-Major Axis(m)": 7083131.272910544,
        "Time(s)": 53
    },
    {
        "Altitude(m)": 713390.3765891584,
        "Argument of Periapsis(deg)": 0.0032371923372519038,
        "Eccentricity": 0.0,
        "Inclination(deg)": 45.0,
        "Latitude(deg)": -34.23415711108987,
        "Longitude(deg)": -127.60257426617142,
        "Mean Anomaly(deg)": 232.36876157349457,
        "RAAN(deg)": 109.99694418505923,
        "Satellite Name": "Constellation 1 498",
        "Satellite Number": 498,
        "Semi-Major Axis(m)": 7083131.272910544,
        "Time(s)": 54
    },
    {
        "Altitude(m)": 713403.1499918249,
        "Argument of Periapsis(deg)": 0.0032971403434973088,
        "Eccentricity": 0.0,
        "Inclination(deg)": 45.0,
        "Latitude(deg)": -34.26579119575627,
        "Longitude(deg)": -127.54422094092897,
        "Mean Anomaly(deg)": 232.42946271374447,
        "RAAN(deg)": 109.99688759589368,
        "Satellite Name": "Constellation 1 498",
        "Satellite Number": 498,
        "Semi-Major Axis(m)": 7083131.272910544,
        "Time(s)": 55
    },
    {
        "Altitude(m)": 713415.9133146681,
        "Argument of Periapsis(deg)": 0.0033570883497427146,
        "Eccentricity": 0.0,
        "Inclination(deg)": 45.0,
        "Latitude(deg)": -34.297393210717345,
        "Longitude(deg)": -127.48582099893564,
        "Mean Anomaly(deg)": 232.49016385399437,
        "RAAN(deg)": 109.99683100672812,
        "Satellite Name": "Constellation 1 498",
        "Satellite Number": 498,
        "Semi-Major Axis(m)": 7083131.272910544,
        "Time(s)": 56
    }
]